{
  "type": "FeatureCollection",
  "features": [
    {
      "type": "Feature",
      "properties": {
        "norad_id": 33886,
        "name": "IRIDIUM 33 DEB",
        "group": "iridium-33-debris",
        "lat": 0.9477170874680793,
        "lon": 69.72812734501726,
        "alt_km": 775.5511870983646,
        "timestamp": "2025-12-06T22:38:43.113348+00:00",
        "meta_object_name": "IRIDIUM 33 DEB",
        "meta_object_id": "1997-051BF",
        "meta_epoch": "2025-12-06T12:39:24.568416",
        "meta_mean_motion": 14.3604061,
        "meta_eccentricity": 0.00120749,
        "meta_inclination": 86.3832,
        "meta_ra_of_asc_node": 69.8433,
        "meta_arg_of_pericenter": 265.6079,
        "meta_mean_anomaly": 105.1045,
        "meta_ephemeris_type": 0,
        "meta_classification_type": "U",
        "meta_norad_cat_id": 33886,
        "meta_element_set_no": 999,
        "meta_rev_at_epoch": 87963,
        "meta_bstar": 0.00040568694,
        "meta_mean_motion_dot": 1.199e-05,
        "meta_mean_motion_ddot": 0,
        "tle_line1": "1 33886U 97051BF  25340.52736769  .00001199  00000+0  40569-3 0  9995",
        "tle_line2": "2 33886  86.3832  69.8433 0012074 265.6079 105.1045 14.36040610879636"
      },
      "geometry": {
        "type": "Point",
        "coordinates": [
          69.72812734501726,
          0.9477170874680793
        ]
      }
    },
    {
      "type": "Feature",
      "properties": {
        "norad_id": 33887,
        "name": "IRIDIUM 33 DEB",
        "group": "iridium-33-debris",
        "lat": -85.3670036080173,
        "lon": -46.99850689390682,
        "alt_km": 772.400764800308,
        "timestamp": "2025-12-06T22:38:43.113359+00:00",
        "meta_object_name": "IRIDIUM 33 DEB",
        "meta_object_id": "1997-051BG",
        "meta_epoch": "2025-12-06T13:38:10.904064",
        "meta_mean_motion": 14.37212873,
        "meta_eccentricity": 0.00040896,
        "meta_inclination": 86.3048,
        "meta_ra_of_asc_node": 6.0519,
        "meta_arg_of_pericenter": 255.8659,
        "meta_mean_anomaly": 235.9824,
        "meta_ephemeris_type": 0,
        "meta_classification_type": "U",
        "meta_norad_cat_id": 33887,
        "meta_element_set_no": 999,
        "meta_rev_at_epoch": 88076,
        "meta_bstar": 0.00026828593,
        "meta_mean_motion_dot": 8.18e-06,
        "meta_mean_motion_ddot": 0,
        "tle_line1": "1 33887U 97051BG  25340.56818176  .00000818  00000+0  26829-3 0  9993",
        "tle_line2": "2 33887  86.3048   6.0519 0004089 255.8659 235.9824 14.37212873880762"
      },
      "geometry": {
        "type": "Point",
        "coordinates": [
          -46.99850689390682,
          -85.3670036080173
        ]
      }
    },
    {
      "type": "Feature",
      "properties": {
        "norad_id": 33953,
        "name": "IRIDIUM 33 DEB",
        "group": "iridium-33-debris",
        "lat": 67.73774061416461,
        "lon": -132.58856731342894,
        "alt_km": 689.099351507868,
        "timestamp": "2025-12-06T22:38:43.113370+00:00",
        "meta_object_name": "IRIDIUM 33 DEB",
        "meta_object_id": "1997-051BN",
        "meta_epoch": "2025-12-05T23:50:27.951648",
        "meta_mean_motion": 14.55218556,
        "meta_eccentricity": 0.00185309,
        "meta_inclination": 86.3851,
        "meta_ra_of_asc_node": 56.7073,
        "meta_arg_of_pericenter": 123.3499,
        "meta_mean_anomaly": 54.0321,
        "meta_ephemeris_type": 0,
        "meta_classification_type": "U",
        "meta_norad_cat_id": 33953,
        "meta_element_set_no": 999,
        "meta_rev_at_epoch": 88205,
        "meta_bstar": 0.0020564879,
        "meta_mean_motion_dot": 8.94e-05,
        "meta_mean_motion_ddot": 0,
        "tle_line1": "1 33953U 97051BN  25339.99337907  .00008940  00000+0  20565-2 0  9994",
        "tle_line2": "2 33953  86.3851  56.7073 0018530 123.3499  54.0321 14.55218556882052"
      },
      "geometry": {
        "type": "Point",
        "coordinates": [
          -132.58856731342894,
          67.73774061416461
        ]
      }
    },
    {
      "type": "Feature",
      "properties": {
        "norad_id": 33960,
        "name": "IRIDIUM 33 DEB",
        "group": "iridium-33-debris",
        "lat": 17.782467769725855,
        "lon": -66.55045737702045,
        "alt_km": 611.8515600707196,
        "timestamp": "2025-12-06T22:38:43.113381+00:00",
        "meta_object_name": "IRIDIUM 33 DEB",
        "meta_object_id": "1997-051BV",
        "meta_epoch": "2025-12-06T15:18:08.666784",
        "meta_mean_motion": 14.84702604,
        "meta_eccentricity": 0.00072103,
        "meta_inclination": 86.2537,
        "meta_ra_of_asc_node": 292.3895,
        "meta_arg_of_pericenter": 70.8498,
        "meta_mean_anomaly": 112.9109,
        "meta_ephemeris_type": 0,
        "meta_classification_type": "U",
        "meta_norad_cat_id": 33960,
        "meta_element_set_no": 999,
        "meta_rev_at_epoch": 88776,
        "meta_bstar": 0.0054964457,
        "meta_mean_motion_dot": 0.00046835,
        "meta_mean_motion_ddot": 0,
        "tle_line1": "1 33960U 97051BV  25340.63760031  .00046835  00000+0  54964-2 0  9998",
        "tle_line2": "2 33960  86.2537 292.3895 0007210  70.8498 112.9109 14.84702604887763"
      },
      "geometry": {
        "type": "Point",
        "coordinates": [
          -66.55045737702045,
          17.782467769725855
        ]
      }
    },
    {
      "type": "Feature",
      "properties": {
        "norad_id": 33966,
        "name": "IRIDIUM 33 DEB",
        "group": "iridium-33-debris",
        "lat": -3.221752173798364,
        "lon": 48.31147832750546,
        "alt_km": 734.6311906370456,
        "timestamp": "2025-12-06T22:38:43.113392+00:00",
        "meta_object_name": "IRIDIUM 33 DEB",
        "meta_object_id": "1997-051CB",
        "meta_epoch": "2025-12-06T14:55:28.956288",
        "meta_mean_motion": 14.49555766,
        "meta_eccentricity": 0.0006717,
        "meta_inclination": 86.3929,
        "meta_ra_of_asc_node": 48.6529,
        "meta_arg_of_pericenter": 209.7556,
        "meta_mean_anomaly": 269.4553,
        "meta_ephemeris_type": 0,
        "meta_classification_type": "U",
        "meta_norad_cat_id": 33966,
        "meta_element_set_no": 999,
        "meta_rev_at_epoch": 88353,
        "meta_bstar": 0.0010447723,
        "meta_mean_motion_dot": 4.027e-05,
        "meta_mean_motion_ddot": 0,
        "tle_line1": "1 33966U 97051CB  25340.62186292  .00004027  00000+0  10448-2 0  9990",
        "tle_line2": "2 33966  86.3929  48.6529 0006717 209.7556 269.4553 14.49555766883538"
      },
      "geometry": {
        "type": "Point",
        "coordinates": [
          48.31147832750546,
          -3.221752173798364
        ]
      }
    },
    {
      "type": "Feature",
      "properties": {
        "norad_id": 34071,
        "name": "IRIDIUM 33 DEB",
        "group": "iridium-33-debris",
        "lat": 65.55497338282143,
        "lon": 28.42968087257478,
        "alt_km": 717.4677175077968,
        "timestamp": "2025-12-06T22:38:43.113402+00:00",
        "meta_object_name": "IRIDIUM 33 DEB",
        "meta_object_id": "1997-051CE",
        "meta_epoch": "2025-12-06T12:24:05.065920",
        "meta_mean_motion": 14.49423554,
        "meta_eccentricity": 0.00096974,
        "meta_inclination": 86.3458,
        "meta_ra_of_asc_node": 20.5333,
        "meta_arg_of_pericenter": 124.3712,
        "meta_mean_anomaly": 235.8411,
        "meta_ephemeris_type": 0,
        "meta_classification_type": "U",
        "meta_norad_cat_id": 34071,
        "meta_element_set_no": 999,
        "meta_rev_at_epoch": 88244,
        "meta_bstar": 0.0010979884,
        "meta_mean_motion_dot": 4.221e-05,
        "meta_mean_motion_ddot": 0,
        "tle_line1": "1 34071U 97051CE  25340.51672530  .00004221  00000+0  10980-2 0  9998",
        "tle_line2": "2 34071  86.3458  20.5333 0009697 124.3712 235.8411 14.49423554882449"
      },
      "geometry": {
        "type": "Point",
        "coordinates": [
          28.42968087257478,
          65.55497338282143
        ]
      }
    },
    {
      "type": "Feature",
      "properties": {
        "norad_id": 34077,
        "name": "IRIDIUM 33 DEB",
        "group": "iridium-33-debris",
        "lat": -51.06060082357359,
        "lon": 49.575685593565595,
        "alt_km": 687.4880546316263,
        "timestamp": "2025-12-06T22:38:43.113413+00:00",
        "meta_object_name": "IRIDIUM 33 DEB",
        "meta_object_id": "1997-051CL",
        "meta_epoch": "2025-12-06T15:16:38.364096",
        "meta_mean_motion": 14.64696477,
        "meta_eccentricity": 0.00107486,
        "meta_inclination": 86.3868,
        "meta_ra_of_asc_node": 54.1959,
        "meta_arg_of_pericenter": 58.7465,
        "meta_mean_anomaly": 72.5173,
        "meta_ephemeris_type": 0,
        "meta_classification_type": "U",
        "meta_norad_cat_id": 34077,
        "meta_element_set_no": 999,
        "meta_rev_at_epoch": 88243,
        "meta_bstar": 0.0029940865,
        "meta_mean_motion_dot": 0.00015987,
        "meta_mean_motion_ddot": 0,
        "tle_line1": "1 34077U 97051CL  25340.63655514  .00015987  00000+0  29941-2 0  9998",
        "tle_line2": "2 34077  86.3868  54.1959 0010748  58.7465  72.5173 14.64696477882434"
      },
      "geometry": {
        "type": "Point",
        "coordinates": [
          49.575685593565595,
          -51.06060082357359
        ]
      }
    }
  ]
}